{
  "type": "FeatureCollection",
  "features": [
    {
      "type": "Feature",
      "properties": {
        "norad_id": 36828,
        "name": "BEIDOU-2 IGSO-1 (C06)",
        "group": "beidou",
        "lat": -53.170023217056006,
        "lon": 58.52981211163112,
        "alt_km": 35635.42956772933,
        "timestamp": "2025-12-25T14:48:25.042248+00:00",
        "meta_object_name": "BEIDOU-2 IGSO-1 (C06)",
        "meta_object_id": "2010-036A",
        "meta_epoch": "2025-12-20T21:47:26.739168",
        "meta_mean_motion": 1.00282395,
        "meta_eccentricity": 0.0051798,
        "meta_inclination": 54.2882,
        "meta_ra_of_asc_node": 164.5739,
        "meta_arg_of_pericenter": 215.2932,
        "meta_mean_anomaly": 144.6604,
        "meta_ephemeris_type": 0,
        "meta_classification_type": "U",
        "meta_norad_cat_id": 36828,
        "meta_element_set_no": 999,
        "meta_rev_at_epoch": 5631,
        "meta_bstar": 0,
        "meta_mean_motion_dot": -5.5e-07,
        "meta_mean_motion_ddot": 0,
        "tle_line1": "1 36828U 10036A   25354.90794837 -.00000055  00000+0  00000+0 0  9992",
        "tle_line2": "2 36828  54.2882 164.5739 0051798 215.2932 144.6604  1.00282395 56317"
      },
      "geometry": {
        "type": "Point",
        "coordinates": [
          58.52981211163112,
          -53.170023217056006
        ]
      }
    },
    {
      "type": "Feature",
      "properties": {
        "norad_id": 37210,
        "name": "BEIDOU-2 G4 (C04)",
        "group": "beidou",
        "lat": 2.3541703061678927,
        "lon": 116.44716041188983,
        "alt_km": 35823.00520962137,
        "timestamp": "2025-12-25T14:48:25.042269+00:00",
        "meta_object_name": "BEIDOU-2 G4 (C04)",
        "meta_object_id": "2010-057A",
        "meta_epoch": "2025-12-25T04:13:04.286784",
        "meta_mean_motion": 1.00271508,
        "meta_eccentricity": 0.00104135,
        "meta_inclination": 3.2133,
        "meta_ra_of_asc_node": 69.8912,
        "meta_arg_of_pericenter": 193.9469,
        "meta_mean_anomaly": 53.4532,
        "meta_ephemeris_type": 0,
        "meta_classification_type": "U",
        "meta_norad_cat_id": 37210,
        "meta_element_set_no": 999,
        "meta_rev_at_epoch": 5554,
        "meta_bstar": 0,
        "meta_mean_motion_dot": -9.1e-07,
        "meta_mean_motion_ddot": 0,
        "tle_line1": "1 37210U 10057A   25359.17574406 -.00000091  00000+0  00000+0 0  9993",
        "tle_line2": "2 37210   3.2133  69.8912 0010413 193.9469  53.4532  1.00271508 55547"
      },
      "geometry": {
        "type": "Point",
        "coordinates": [
          116.44716041188983,
          2.3541703061678927
        ]
      }
    },
    {
      "type": "Feature",
      "properties": {
        "norad_id": 37256,
        "name": "BEIDOU-2 IGSO-2 (C07)",
        "group": "beidou",
        "lat": 21.75794356251262,
        "lon": 72.85055975676154,
        "alt_km": 35697.153902279526,
        "timestamp": "2025-12-25T14:48:25.042282+00:00",
        "meta_object_name": "BEIDOU-2 IGSO-2 (C07)",
        "meta_object_id": "2010-068A",
        "meta_epoch": "2025-12-24T17:01:55.972704",
        "meta_mean_motion": 1.00282798,
        "meta_eccentricity": 0.0048511,
        "meta_inclination": 47.864,
        "meta_ra_of_asc_node": 274.0027,
        "meta_arg_of_pericenter": 216.2647,
        "meta_mean_anomaly": 326.7558,
        "meta_ephemeris_type": 0,
        "meta_classification_type": "U",
        "meta_norad_cat_id": 37256,
        "meta_element_set_no": 999,
        "meta_rev_at_epoch": 5504,
        "meta_bstar": 0,
        "meta_mean_motion_dot": -1.92e-06,
        "meta_mean_motion_ddot": 0,
        "tle_line1": "1 37256U 10068A   25358.70967561 -.00000192  00000+0  00000+0 0  9993",
        "tle_line2": "2 37256  47.8640 274.0027 0048511 216.2647 326.7558  1.00282798 55040"
      },
      "geometry": {
        "type": "Point",
        "coordinates": [
          72.85055975676154,
          21.75794356251262
        ]
      }
    },
    {
      "type": "Feature",
      "properties": {
        "norad_id": 37384,
        "name": "BEIDOU-2 IGSO-3 (C08)",
        "group": "beidou",
        "lat": 19.100415396946566,
        "lon": 52.3644069467163,
        "alt_km": 35929.84207397213,
        "timestamp": "2025-12-25T14:48:25.042293+00:00",
        "meta_object_name": "BEIDOU-2 IGSO-3 (C08)",
        "meta_object_id": "2011-013A",
        "meta_epoch": "2025-12-24T13:36:08.179776",
        "meta_mean_motion": 1.00268125,
        "meta_eccentricity": 0.00352821,
        "meta_inclination": 62.1584,
        "meta_ra_of_asc_node": 41.8043,
        "meta_arg_of_pericenter": 187.8377,
        "meta_mean_anomaly": 174.9924,
        "meta_ephemeris_type": 0,
        "meta_classification_type": "U",
        "meta_norad_cat_id": 37384,
        "meta_element_set_no": 999,
        "meta_rev_at_epoch": 5391,
        "meta_bstar": 0,
        "meta_mean_motion_dot": -1.63e-06,
        "meta_mean_motion_ddot": 0,
        "tle_line1": "1 37384U 11013A   25358.56676134 -.00000163  00000+0  00000+0 0  9991",
        "tle_line2": "2 37384  62.1584  41.8043 0035282 187.8377 174.9924  1.00268125 53913"
      },
      "geometry": {
        "type": "Point",
        "coordinates": [
          52.3644069467163,
          19.100415396946566
        ]
      }
    },
    {
      "type": "Feature",
      "properties": {
        "norad_id": 37763,
        "name": "BEIDOU-2 IGSO-4 (C09)",
        "group": "beidou",
        "lat": -47.299285220828764,
        "lon": 37.73159151358395,
        "alt_km": 35180.09380916137,
        "timestamp": "2025-12-25T14:48:25.042304+00:00",
        "meta_object_name": "BEIDOU-2 IGSO-4 (C09)",
        "meta_object_id": "2011-038A",
        "meta_epoch": "2025-12-21T10:06:26.864064",
        "meta_mean_motion": 1.00280083,
        "meta_eccentricity": 0.01491557,
        "meta_inclination": 54.5854,
        "meta_ra_of_asc_node": 167.2693,
        "meta_arg_of_pericenter": 230.0944,
        "meta_mean_anomaly": 299.1265,
        "meta_ephemeris_type": 0,
        "meta_classification_type": "U",
        "meta_norad_cat_id": 37763,
        "meta_element_set_no": 999,
        "meta_rev_at_epoch": 5286,
        "meta_bstar": 0,
        "meta_mean_motion_dot": 5.9e-07,
        "meta_mean_motion_ddot": 0,
        "tle_line1": "1 37763U 11038A   25355.42114426  .00000059  00000+0  00000+0 0  9995",
        "tle_line2": "2 37763  54.5854 167.2693 0149155 230.0944 299.1265  1.00280083 52867"
      },
      "geometry": {
        "type": "Point",
        "coordinates": [
          37.73159151358395,
          -47.299285220828764
        ]
      }
    },
    {
      "type": "Feature",
      "properties": {
        "norad_id": 37948,
        "name": "BEIDOU-2 IGSO-5 (C10)",
        "group": "beidou",
        "lat": 31.61149294013238,
        "lon": 60.08823155630361,
        "alt_km": 35747.62523513563,
        "timestamp": "2025-12-25T14:48:25.042315+00:00",
        "meta_object_name": "BEIDOU-2 IGSO-5 (C10)",
        "meta_object_id": "2011-073A",
        "meta_epoch": "2025-12-24T17:40:34.414752",
        "meta_mean_motion": 1.00288414,
        "meta_eccentricity": 0.01097165,
        "meta_inclination": 47.9979,
        "meta_ra_of_asc_node": 273.7118,
        "meta_arg_of_pericenter": 222.1575,
        "meta_mean_anomaly": 316.4289,
        "meta_ephemeris_type": 0,
        "meta_classification_type": "U",
        "meta_norad_cat_id": 37948,
        "meta_element_set_no": 999,
        "meta_rev_at_epoch": 5138,
        "meta_bstar": 0,
        "meta_mean_motion_dot": -1.39e-06,
        "meta_mean_motion_ddot": 0,
        "tle_line1": "1 37948U 11073A   25358.73650943 -.00000139  00000+0  00000+0 0  9995",
        "tle_line2": "2 37948  47.9979 273.7118 0109716 222.1575 316.4289  1.00288414 51383"
      },
      "geometry": {
        "type": "Point",
        "coordinates": [
          60.08823155630361,
          31.61149294013238
        ]
      }
    },
    {
      "type": "Feature",
      "properties": {
        "norad_id": 38091,
        "name": "BEIDOU-2 G5 (C05)",
        "group": "beidou",
        "lat": -2.5822447541675024,
        "lon": 15.388490066786826,
        "alt_km": 35770.33460150466,
        "timestamp": "2025-12-25T14:48:25.042326+00:00",
        "meta_object_name": "BEIDOU-2 G5 (C05)",
        "meta_object_id": "2012-008A",
        "meta_epoch": "2025-12-24T23:39:02.942208",
        "meta_mean_motion": 1.00269891,
        "meta_eccentricity": 0.00130967,
        "meta_inclination": 3.1377,
        "meta_ra_of_asc_node": 70.6643,
        "meta_arg_of_pericenter": 232.2116,
        "meta_mean_anomaly": 204.3729,
        "meta_ephemeris_type": 0,
        "meta_classification_type": "U",
        "meta_norad_cat_id": 38091,
        "meta_element_set_no": 999,
        "meta_rev_at_epoch": 5062,
        "meta_bstar": 0,
        "meta_mean_motion_dot": 7.7e-07,
        "meta_mean_motion_ddot": 0,
        "tle_line1": "1 38091U 12008A   25358.98545072  .00000077  00000+0  00000+0 0  9997",
        "tle_line2": "2 38091   3.1377  70.6643 0013096 232.2116 204.3729  1.00269891 50622"
      },
      "geometry": {
        "type": "Point",
        "coordinates": [
          15.388490066786826,
          -2.5822447541675024
        ]
      }
    }
  ]
}